OBJECT_NAME,OBJECT_ID,EPOCH,MEAN_MOTION,ECCENTRICITY,INCLINATION,RA_OF_ASC_NODE,ARG_OF_PERICENTER,MEAN_ANOMALY,EPHEMERIS_TYPE,CLASSIFICATION_TYPE,NORAD_CAT_ID,ELEMENT_SET_NO,REV_AT_EPOCH,BSTAR,MEAN_MOTION_DOT,MEAN_MOTION_DDOT
JCSAT-3A,2006-033A,2026-07-09T19:23:33.938016,1.00270679,.0002499,0.0241,302.4765,182.7953,221.3605,0,U,29272,999,4796,0,-.333E-5,0
KOREASAT 5 (MUGUNGWHA 5),2006-034A,2026-07-09T15:54:00.112320,1.00269556,.0001895,1.8400,82.7169,75.9739,120.4572,0,U,29349,999,4154,0,-.347E-5,0
DIRECTV 9S,2006-043A,2026-07-09T13:10:19.396704,1.00270965,.0005055,2.4753,80.6337,31.1120,272.1202,0,U,29494,999,5160,0,-.103E-5,0
OPTUS D1,2006-043B,2026-07-09T17:47:45.611232,1.00270937,.0003376,3.0897,79.3797,28.0022,239.2035,0,U,29495,999,7234,0,-.174E-5,0
BADR-4,2006-051A,2026-07-09T18:56:57.984864,1.00273810,.0004917,2.0601,80.8765,29.2005,136.3357,0,U,29526,999,5149,0,.166E-5,0
WILDBLUE-1,2006-054A,2026-07-09T15:37:20.498880,1.00274051,.0001264,2.8578,80.2025,36.0207,294.4950,0,U,29643,999,5401,0,-.39E-6,0
SKYNET 5A,2007-007B,2026-07-09T19:32:21.636384,1.00271350,.000369,5.3562,73.4648,38.3593,204.2295,0,U,30794,999,7092,0,-.264E-5,0
ANIK F3,2007-009A,2026-07-09T13:05:19.876416,1.00271747,.0002534,1.2522,83.5869,32.6844,248.8270,0,U,31102,999,4678,0,.11E-6,0
ASTRA 1L,2007-016A,2026-07-09T18:40:10.585056,1.00270914,.0005296,1.3770,81.3910,31.2560,70.5990,0,U,31306,999,4521,0,-.173E-5,0
GALAXY 17 (G-17),2007-016B,2026-07-09T18:22:49.749312,1.00271321,.0003609,3.0256,79.6152,30.1652,8.6040,0,U,31307,999,7003,0,-.197E-5,0
INTELSAT 11 (IS-11),2007-044B,2026-07-09T18:54:30.714336,0.99050314,.0003959,3.6211,78.3957,98.5120,60.7918,0,U,32253,999,6867,0,-.15E-6,0
WGS F1 (USA 195),2007-046A,2026-07-09T07:35:38.812416,1.00262904,.00003729,0.0140,73.5639,193.5437,91.5759,0,U,32258,999,5255,0,-.254E-5,0
SKYNET 5B,2007-056B,2026-07-09T18:54:15.736896,1.00272130,.0003743,5.3079,73.2352,35.9010,127.2182,0,U,32294,999,6842,0,.147E-5,0
ASTRA 4A,2007-057A,2026-07-09T18:48:31.287744,1.00269758,.0002273,0.0379,291.5517,181.8275,101.2714,0,U,32299,999,5187,0,.44E-6,0
HORIZONS-2,2007-063B,2026-07-09T18:26:04.437024,1.00271114,.0003636,2.6572,80.3490,16.5114,33.5680,0,U,32388,999,6804,0,-.243E-5,0
THURAYA-3,2008-001A,2026-07-09T17:02:38.694048,1.00270715,.0002196,6.0256,35.8108,73.3221,137.8703,0,U,32404,999,6771,0,.17E-6,0
THOR 5,2008-006A,2026-07-09T18:46:53.945184,1.00270386,.0002342,0.0529,245.0715,231.0289,92.5877,0,U,32487,999,6754,0,.3E-7,0
AMC-14,2008-011A,2026-07-08T00:22:21.641664,1.00420348,.00400843,24.0344,20.2686,8.0353,338.2081,0,U,32708,999,6837,0,-.14E-5,0
DIRECTV 11,2008-013A,2026-07-09T15:49:42.984192,1.00269383,.0000063,0.0371,212.2708,214.6798,358.8841,0,U,32729,999,4581,0,-.113E-5,0
ICO G1,2008-016A,2026-07-09T13:12:41.668992,1.00273508,.0002235,5.5259,36.0549,63.3111,293.4327,0,U,32763,999,6676,0,-.164E-5,0
VINASAT-1,2008-018A,2026-07-09T19:24:41.330880,1.00270574,.0001426,0.0416,282.6682,207.3817,220.8055,0,U,32767,999,6681,0,-.316E-5,0
STAR ONE C2,2008-018B,2026-07-09T18:28:34.199328,1.00269745,.0002772,1.2951,82.2511,44.9187,12.6633,0,U,32768,999,6688,0,-.265E-5,0
AMOS-3,2008-022A,2026-07-09T16:54:38.749824,1.00486496,.0002914,0.5103,85.8985,81.8442,69.5415,0,U,32794,999,8256,0,.53E-6,0
GALAXY 18 (G-18),2008-024A,2026-07-09T18:11:58.288992,1.00269970,.000275,0.0222,29.3999,91.6983,316.5911,0,U,32951,999,4607,0,0,0
ZHONGXING-9,2008-028A,2026-07-09T20:56:05.399808,1.00271500,.0003475,0.8232,85.0905,15.9946,233.1231,0,U,33051,999,6626,0,-.237E-5,0
SKYNET 5C,2008-030A,2026-07-09T07:19:38.686368,1.00269811,.00042355,3.8423,76.7778,43.2228,259.3357,0,U,33055,999,6617,0,-.13E-5,0
TURKSAT 3A,2008-030B,2026-07-09T17:16:28.642080,1.00273709,.0004719,0.0196,61.9365,30.6934,136.1521,0,U,33056,999,5258,0,.158E-5,0
ECHOSTAR 11,2008-035A,2026-07-09T14:56:20.810112,1.00270500,.0002322,1.0601,83.9227,10.6856,307.2444,0,U,33207,999,5143,0,-.46E-6,0
SUPERBIRD-C2,2008-038A,2026-07-09T19:25:56.212032,1.00271390,.0006159,2.4162,80.9824,37.1856,237.0655,0,U,33274,999,10595,0,-.296E-5,0
INMARSAT 4-F3,2008-039A,2026-07-09T14:53:47.851008,1.00271379,.0002754,4.3122,31.6892,81.3440,299.9636,0,U,33278,999,4677,0,-.131E-5,0
NIMIQ 4,2008-044A,2026-07-09T18:23:34.678176,1.00266263,.000212,0.0296,57.9905,77.1638,346.4557,0,U,33373,999,6521,0,0,0
GALAXY 19 (G-19),2008-045A,2026-07-09T15:52:34.521888,1.00272554,.0002377,0.0549,251.6244,224.1277,312.9741,0,U,33376,999,6512,0,-.126E-5,0
