JCSAT-3A                
1 29272U 06033A   26190.80803169 -.00000333  00000+0  00000+0 0  9995
2 29272   0.0241 302.4765 0002499 182.7953 221.3605  1.00270679 47964
KOREASAT 5 (MUGUNGWHA 5)
1 29349U 06034A   26190.66250130 -.00000347  00000+0  00000+0 0  9994
2 29349   1.8400  82.7169 0001895  75.9739 120.4572  1.00269556 41547
DIRECTV 9S              
1 29494U 06043A   26190.54883561 -.00000103  00000+0  00000+0 0  9992
2 29494   2.4753  80.6337 0005055  31.1120 272.1202  1.00270965 51609
OPTUS D1                
1 29495U 06043B   26190.74150013 -.00000174  00000+0  00000+0 0  9992
2 29495   3.0897  79.3797 0003376  28.0022 239.2035  1.00270937 72342
BADR-4                  
1 29526U 06051A   26190.78956001  .00000166  00000+0  00000+0 0  9991
2 29526   2.0601  80.8765 0004917  29.2005 136.3357  1.00273810 51497
WILDBLUE-1              
1 29643U 06054A   26190.65093170 -.00000039  00000+0  00000+0 0  9999
2 29643   2.8578  80.2025 0001264  36.0207 294.4950  1.00274051 54017
SKYNET 5A               
1 30794U 07007B   26190.81413931 -.00000264  00000+0  00000+0 0  9996
2 30794   5.3562  73.4648 0003690  38.3593 204.2295  1.00271350 70928
ANIK F3                 
1 31102U 07009A   26190.54536894  .00000011  00000+0  00000+0 0  9995
2 31102   1.2522  83.5869 0002534  32.6844 248.8270  1.00271747 46786
ASTRA 1L                
1 31306U 07016A   26190.77790029 -.00000173  00000+0  00000+0 0  9996
2 31306   1.3770  81.3910 0005296  31.2560  70.5990  1.00270914 45210
GALAXY 17 (G-17)        
1 31307U 07016B   26190.76585358 -.00000197  00000+0  00000+0 0  9999
2 31307   3.0256  79.6152 0003609  30.1652   8.6040  1.00271321 70032
INTELSAT 11 (IS-11)     
1 32253U 07044B   26190.78785549 -.00000015  00000+0  00000+0 0  9996
2 32253   3.6211  78.3957 0003959  98.5120  60.7918  0.99050314 68679
WGS F1 (USA 195)        
1 32258U 07046A   26190.31642144 -.00000254  00000+0  00000+0 0  9990
2 32258   0.0140  73.5639 0000372 193.5437  91.5759  1.00262904 52551
SKYNET 5B               
1 32294U 07056B   26190.78768214  .00000147  00000+0  00000+0 0  9999
2 32294   5.3079  73.2352 0003743  35.9010 127.2182  1.00272130 68422
ASTRA 4A                
1 32299U 07057A   26190.78369546  .00000044  00000+0  00000+0 0  9996
2 32299   0.0379 291.5517 0002273 181.8275 101.2714  1.00269758 51877
HORIZONS-2              
1 32388U 07063B   26190.76810691 -.00000243  00000+0  00000+0 0  9994
2 32388   2.6572  80.3490 0003636  16.5114  33.5680  1.00271114 68048
THURAYA-3               
1 32404U 08001A   26190.71017007  .00000017  00000+0  00000+0 0  9999
2 32404   6.0256  35.8108 0002196  73.3221 137.8703  1.00270715 67718
THOR 5                  
1 32487U 08006A   26190.78256881  .00000003  00000+0  00000+0 0  9992
2 32487   0.0529 245.0715 0002342 231.0289  92.5877  1.00270386 67549
AMC-14                  
1 32708U 08011A   26189.01552826 -.00000140  00000+0  00000+0 0  9999
2 32708  24.0344  20.2686 0040084   8.0353 338.2081  1.00420348 68379
DIRECTV 11              
1 32729U 08013A   26190.65952528 -.00000113  00000+0  00000+0 0  9999
2 32729   0.0371 212.2708 0000063 214.6798 358.8841  1.00269383 45811
ICO G1                  
1 32763U 08016A   26190.55048228 -.00000164  00000+0  00000+0 0  9998
2 32763   5.5259  36.0549 0002235  63.3111 293.4327  1.00273508 66764
VINASAT-1               
1 32767U 08018A   26190.80881170 -.00000316  00000+0  00000+0 0  9992
2 32767   0.0416 282.6682 0001426 207.3817 220.8055  1.00270574 66812
STAR ONE C2             
1 32768U 08018B   26190.76984027 -.00000265  00000+0  00000+0 0  9996
2 32768   1.2951  82.2511 0002772  44.9187  12.6633  1.00269745 66889
AMOS-3                  
1 32794U 08022A   26190.70461516  .00000053  00000+0  00000+0 0  9991
2 32794   0.5103  85.8985 0002914  81.8442  69.5415  1.00486496 82561
GALAXY 18 (G-18)        
1 32951U 08024A   26190.75831353  .00000000  00000+0  00000+0 0  9995
2 32951   0.0222  29.3999 0002750  91.6983 316.5911  1.00269970 46076
ZHONGXING-9             
1 33051U 08028A   26190.87228472 -.00000237  00000+0  00000+0 0  9999
2 33051   0.8232  85.0905 0003475  15.9946 233.1231  1.00271500 66260
SKYNET 5C               
1 33055U 08030A   26190.30530887 -.00000130  00000+0  00000+0 0  9992
2 33055   3.8423  76.7778 0004235  43.2228 259.3357  1.00269811 66177
TURKSAT 3A              
1 33056U 08030B   26190.71977595  .00000158  00000+0  00000+0 0  9998
2 33056   0.0196  61.9365 0004719  30.6934 136.1521  1.00273709 52589
ECHOSTAR 11             
1 33207U 08035A   26190.62246308 -.00000046  00000+0  00000+0 0  9999
2 33207   1.0601  83.9227 0002322  10.6856 307.2444  1.00270500 51433
SUPERBIRD-C2            
1 33274U 08038A   26190.80967838 -.00000296  00000+0  00000+0 0  9991
2 33274   2.4162  80.9824 0006159  37.1856 237.0655  1.00271390105959
INMARSAT 4-F3           
1 33278U 08039A   26190.62069272 -.00000131  00000+0  00000+0 0  9999
2 33278   4.3122  31.6892 0002754  81.3440 299.9636  1.00271379 46772
NIMIQ 4                 
1 33373U 08044A   26190.76637359  .00000000  00000+0  00000+0 0  9997
2 33373   0.0296  57.9905 0002120  77.1638 346.4557  1.00266263 65214
GALAXY 19 (G-19)        
1 33376U 08045A   26190.66151067 -.00000126  00000+0  00000+0 0  9997
2 33376   0.0549 251.6244 0002377 224.1277 312.9741  1.00272554 65127
